{
    "links": {
        "self": "http://www.neowsapp.com/rest/v1/neo/3771477?api_key=iIulBulltgU6a56xZRHN4H3l9WmuAYTsLGpBGhQ2"
    },
    "id": "3771477",
    "neo_reference_id": "3771477",
    "name": "(2017 ES22)",
    "designation": "2017 ES22",
    "nasa_jpl_url": "http://ssd.jpl.nasa.gov/sbdb.cgi?sstr=3771477",
    "absolute_magnitude_h": 19.9,
    "estimated_diameter": {
        "kilometers": {
            "estimated_diameter_min": 0.2783267681,
            "estimated_diameter_max": 0.6223575734
        },
        "meters": {
            "estimated_diameter_min": 278.3267680719,
            "estimated_diameter_max": 622.3575733667
        },
        "miles": {
            "estimated_diameter_min": 0.1729441822,
            "estimated_diameter_max": 0.3867149477
        },
        "feet": {
            "estimated_diameter_min": 913.1455937611,
            "estimated_diameter_max": 2041.8556210042
        }
    },
    "is_potentially_hazardous_asteroid": false,
    "close_approach_data": [
        {
            "close_approach_date": "2017-04-01",
            "close_approach_date_full": "2017-Apr-01 19:09",
            "epoch_date_close_approach": 1491073740000,
            "relative_velocity": {
                "kilometers_per_second": "13.4072484147",
                "kilometers_per_hour": "48266.0942929279",
                "miles_per_hour": "29990.6739788474"
            },
            "miss_distance": {
                "astronomical": "0.4720022403",
                "lunar": "183.6088714767",
                "kilometers": "70610529.784108161",
                "miles": "43875348.6808921818"
            },
            "orbiting_body": "Earth"
        },
        {
            "close_approach_date": "2038-04-02",
            "close_approach_date_full": "2038-Apr-02 13:02",
            "epoch_date_close_approach": 2153826120000,
            "relative_velocity": {
                "kilometers_per_second": "13.1614203238",
                "kilometers_per_hour": "47381.1131657822",
                "miles_per_hour": "29440.7811223717"
            },
            "miss_distance": {
                "astronomical": "0.4713150082",
                "lunar": "183.3415381898",
                "kilometers": "70507721.325752534",
                "miles": "43811466.4671276092"
            },
            "orbiting_body": "Earth"
        }
    ],
    "orbital_data": {
        "orbit_id": "8",
        "orbit_determination_date": "2017-05-21 06:16:56",
        "first_observation_date": "2017-03-13",
        "last_observation_date": "2017-05-21",
        "data_arc_in_days": 69,
        "observations_used": 44,
        "orbit_uncertainty": "5",
        "minimum_orbit_intersection": ".472108",
        "jupiter_tisserand_invariant": "3.072",
        "epoch_osculation": "2459000.5",
        "eccentricity": ".5340459452928791",
        "semi_major_axis": "2.602655014936623",
        "inclination": "26.1955867107442",
        "ascending_node_longitude": "47.68156138026912",
        "orbital_period": "1533.639675809054",
        "perihelion_distance": "1.212717657213542",
        "perihelion_argument": "97.31187142310863",
        "aphelion_distance": "3.992592372659704",
        "perihelion_time": "2459327.583702780155",
        "mean_anomaly": "283.2217744114254",
        "mean_motion": ".2347357111833235",
        "equinox": "J2000",
        "orbit_class": {
            "orbit_class_type": "AMO",
            "orbit_class_description": "Near-Earth asteroid orbits similar to that of 1221 Amor",
            "orbit_class_range": "1.017 AU < q (perihelion) < 1.3 AU"
        }
    },
    "is_sentry_object": false
}